STARLINK-32227          
1 60361U 24138G   26025.51473091 -.00010027  00000+0 -32671-3 0  9992
2 60361  53.1590 150.3989 0000967  58.5959 301.5136 15.30214911 84029
STARLINK-32256          
1 60362U 24138H   26025.52002773  .00000419  00000+0  26273-4 0  9993
2 60362  53.1618 150.4321 0001085  87.5865 272.5260 15.30195577 84001
STARLINK-32267          
1 60363U 24138J   26025.50947079  .00019053  00000+0  65344-3 0  9994
2 60363  53.1579 150.3750 0001092 101.1020 259.0104 15.30216291 84012
STARLINK-32270          
1 60364U 24138K   26025.50102978  .00000211  00000+0  19264-4 0  9993
2 60364  53.1594 150.3232 0001383  77.8003 282.3153 15.30198301 83910
STARLINK-32188          
1 60365U 24138L   26025.49470178 -.00001433  00000+0 -36268-4 0  9994
2 60365  53.1613 150.2839 0001077  82.3042 277.8081 15.30203495 84011
STARLINK-32230          
1 60366U 24138M   26025.50736171 -.00003740  00000+0 -11420-3 0  9990
2 60366  53.1569 150.3641 0001445  85.0450 275.0716 15.30198676 84015
STARLINK-32243          
1 60367U 24138N   26025.49680843  .00001629  00000+0  67147-4 0  9993
2 60367  53.1587 150.2913 0001965  45.5258 314.5903 15.30193763 84010
STARLINK-32271          
1 60368U 24138P   26025.51685389 -.00007442  00000+0 -23919-3 0  9996
2 60368  53.1630 150.4228 0001152  93.0157 267.0975 15.30226173 84018
STARLINK-32266          
1 60369U 24138Q   26024.76590297  .00380635  00000+0  17522-2 0  9994
2 60369  53.1301 131.1609 0014248 341.0292  19.0198 15.81905822 84214
STARLINK-32220          
1 60370U 24138R   26025.50311890 -.00009836  00000+0 -32000-3 0  9991
2 60370  53.1604 150.3342 0000579  46.4025 313.7024 15.30243608 84012
STARLINK-32263          
1 60371U 24138S   26023.37296725  .00007201  00000+0  25506-3 0  9999
2 60371  53.1607 159.7951 0001005  77.4243 282.6870 15.30192916 83596
STARLINK-32268          
1 60372U 24138T   26025.51790263 -.00012431  00000+0 -40767-3 0  9993
2 60372  53.1621 150.4267 0000571 123.0515 237.0540 15.30250410 84018
STARLINK-32223          
1 60373U 24138U   26025.49785882  .00001844  00000+0  74365-4 0  9998
2 60373  53.1608 150.3028 0001455  88.9955 271.1212 15.30204173 83915
STARLINK-32180          
1 60374U 24138V   26025.49996936 -.00000464  00000+0 -35418-5 0  9999
2 60374  53.1600 150.3135 0001317  79.8449 280.2700 15.30205109 84016
STARLINK-32281          
1 60375U 24138W   26024.75407792 -.00001177  00000+0 -27622-4 0  9994
2 60375  53.1603 153.4832 0001106  92.7786 267.3341 15.30208111 83801
STARLINK-32277          
1 60376U 24138X   26025.50627840  .00001192  00000+0  52314-4 0  9998
2 60376  53.1609 150.3517 0000430 124.2093 235.8949 15.30218115 84018
STARLINK-32269          
1 60377U 24138Y   26025.49047747  .00025375  00000+0  86488-3 0  9996
2 60377  53.1579 150.2521 0001260  29.6678 330.4394 15.30239037 84010
STARLINK-11228 [DTC]    
1 60398U 24141A   26024.06355554  .00001787  00000+0  19614-4 0  9992
2 60398  53.1602 306.2689 0001502  90.0798 270.0392 15.69705230 84687
STARLINK-11182 [DTC]    
1 60399U 24141B   26025.06754818 -.00003035  00000+0 -20208-4 0  9991
2 60399  53.1590 301.1507 0001255 107.4643 252.6512 15.69705071 84890
STARLINK-11234 [DTC]    
1 60400U 24141C   26025.06264551 -.00001076  00000+0 -40276-5 0  9995
2 60400  53.1599 301.1169 0001145  84.2850 275.8299 15.69703071 84848
STARLINK-11232 [DTC]    
1 60401U 24141D   26025.05774056 -.00004221  00000+0 -29989-4 0  9993
2 60401  53.1599 301.0838 0001049  78.1723 281.9412 15.69715938 84890
STARLINK-11139 [DTC]    
1 60402U 24141E   26025.05284052 -.00001453  00000+0 -71502-5 0  9999
2 60402  53.1589 301.0533 0000673  43.1373 316.9698 15.69697578 84891
STARLINK-11158 [DTC]    
1 60403U 24141F   26025.04802722 -.00002817  00000+0 -18383-4 0  9991
2 60403  53.1603 301.7545 0001651  88.6849 271.4358 15.69723275 84834
STARLINK-11199 [DTC]    
1 60404U 24141G   26025.04312530 -.00001074  00000+0 -40071-5 0  9999
2 60404  53.1593 301.7186 0001207  96.4699 263.6456 15.69699467 84883
STARLINK-11081 [DTC]    
1 60405U 24141H   26025.10188907 -.00005108  00000+0 -37316-4 0  9995
2 60405  53.1582 301.3741 0001647  85.4779 274.6427 15.69713639 84844
STARLINK-11150 [DTC]    
1 60406U 24141J   26023.50525311  .00002982  00000+0  29487-4 0  9997
2 60406  53.1581 309.1873 0001476  70.9246 289.1932 15.69692267 84647
STARLINK-11136 [DTC]    
1 60407U 24141K   26024.07336806  .00002120  00000+0  22355-4 0  9991
2 60407  53.1599 306.3300 0001064  78.8522 281.2615 15.69704856 84681
STARLINK-11196 [DTC]    
1 60408U 24141L   26024.76882511 -.00001075  00000+0 -40161-5 0  9993
2 60408  53.1583 302.8438 0000957  82.7072 277.4054 15.69701735 84847
STARLINK-11174 [DTC]    
1 60409U 24141M   26025.45937208  .00000129  00000+0  59189-5 0  9992
2 60409  53.1555 299.3263 0001060  83.0887 277.0251 15.69709946 84901
STARLINK-11191 [DTC]    
1 60410U 24141N   26025.45445953  .00001010  00000+0  13192-4 0  9998
2 60410  53.1591 299.2930 0001227 129.5932 230.5195 15.69715259 84955
STARLINK-32244          
1 60411U 24141P   26025.42491031  .00000538  00000+0  30307-4 0  9995
2 60411  53.1604  83.7526 0001608 132.1502 227.9636 15.30193283 82957
STARLINK-32186          
1 60412U 24141Q   26025.42175045 -.00002659  00000+0 -77681-4 0  9994
2 60412  53.1590  83.7424 0001526  53.2222 306.8919 15.30197728 82892
STARLINK-32178          
1 60413U 24141R   26025.47756713 -.00000079  00000+0  94707-5 0  9999
2 60413  53.1593  83.3725 0001616 114.1209 245.9961 15.30186115 82908
STARLINK-32234          
1 60414U 24141S   26025.41858254 -.00000632  00000+0 -92043-5 0  9994
2 60414  53.1591  83.7151 0001385 105.4425 254.6729 15.30186110 82959
STARLINK-32265          
1 60415U 24141T   26025.48072924 -.00000039  00000+0  10798-4 0  9990
2 60415  53.1604  83.3943 0001250  92.3981 267.7163 15.30193085 82969
STARLINK-32197          
1 60416U 24141U   26025.42183296 -.00003139  00000+0 -93897-4 0  9996
2 60416  53.1598  73.7722 0000928  83.3489 276.7617 15.30204525 83039
STARLINK-32255          
1 60417U 24141V   26025.47123098 -.00002148  00000+0 -60435-4 0  9997
2 60417  53.1614  83.3335 0001180  89.8076 270.3060 15.30190459 82963
STARLINK-32236          
1 60418U 24141W   26025.46701276 -.00003618  00000+0 -11008-3 0  9991
2 60418  53.1617  83.3049 0001085 120.9095 239.2012 15.30198717 82967
STARLINK-32250          
1 60425U 24144A   26023.34995185 -.00031385  00000+0 -10618-2 0  9998
2 60425  53.1603  68.0024 0003126 312.9492  47.1246 15.29893144 81468
STARLINK-32226          
1 60426U 24144B   26025.50389192 -.00000174  00000+0  62451-5 0  9990
2 60426  53.1605  57.9784 0001011  82.0394 278.0721 15.30199417 82691
STARLINK-32254          
1 60427U 24144C   26025.49120508  .00001942  00000+0  77642-4 0  9993
2 60427  53.1603  57.8932 0000915 103.1172 256.9930 15.30205423 82732
STARLINK-32193          
1 60428U 24144D   26025.50178255 -.00000387  00000+0 -94536-6 0  9995
2 60428  53.1602  57.9667 0001260  67.3768 292.7365 15.30199087 82732
STARLINK-32242          
1 60429U 24144E   26025.36377212 -.00001656  00000+0 -43818-4 0  9999
2 60429  53.1616  58.5293 0001286  78.8993 281.2153 15.30182895 82710
STARLINK-32196          
1 60430U 24144F   26025.48806362 -.00002277  00000+0 -64767-4 0  9993
2 60430  53.1601  57.8783 0001334  82.3843 277.7309 15.30204570 82695
STARLINK-32232          
1 60431U 24144G   26025.36798609 -.00003524  00000+0 -10690-3 0  9996
2 60431  53.1594  58.5566 0001285  73.9079 286.2064 15.30203029 82675
STARLINK-32246          
1 60432U 24144H   26025.35638152  .00000772  00000+0  38214-4 0  9995
2 60432  53.1599  58.4795 0001264  79.1457 280.9686 15.30188864 82679
STARLINK-32183          
1 60433U 24144J   26025.48489780 -.00003072  00000+0 -91624-4 0  9993
2 60433  53.1597  57.8590 0001227  81.1791 278.9349 15.30208104 82692
STARLINK-32233          
1 60434U 24144K   26025.41009204 -.00003663  00000+0 -11158-3 0  9995
2 60434  53.1597  58.1045 0001672  94.4935 265.6257 15.30201726 82686
STARLINK-32222          
1 60435U 24144L   26025.47856749  .00000399  00000+0  25627-4 0  9994
2 60435  53.1595  57.8208 0002035 110.0407 250.0813 15.30194166 82691
STARLINK-32229          
1 60436U 24144M   26025.40692017 -.00001097  00000+0 -24919-4 0  9995
2 60436  53.1607  58.0843 0000999  79.9791 280.1323 15.30200397 82683
STARLINK-32241          
1 60437U 24144N   26025.40586511 -.00001583  00000+0 -41340-4 0  9994
2 60437  53.1602  58.0783 0001253 108.6205 251.4931 15.30198817 82685
STARLINK-32240          
1 60438U 24144P   26025.40375808 -.00000661  00000+0 -10195-4 0  9990
2 60438  53.1608  58.0673 0001826  68.6084 291.5111 15.30190070 82729
STARLINK-32231          
1 60439U 24144Q   26025.39637347  .00007074  00000+0  25070-3 0  9998
2 60439  53.1612  58.0192 0001655  69.1714 290.9464 15.30205187 81782
STARLINK-32195          
1 60440U 24144R   26025.40059374 -.00004206  00000+0 -12993-3 0  9996
2 60440  53.1613  58.0449 0001504  75.9917 284.1250 15.30205404 82683
STARLINK-32177          
1 60441U 24144S   26025.39320417 -.00000628  00000+0 -90826-5 0  9991
2 60441  53.1609  57.9992 0001528  84.8461 275.2714 15.30191225 82680
STARLINK-32252          
1 60442U 24144T   26025.45218594  .00000416  00000+0  26184-4 0  9999
2 60442  53.1602  57.6547 0001228  78.6984 281.4155 15.30188492 82731
STARLINK-32237          
1 60443U 24144U   26025.32472534 -.00000631  00000+0 -92007-5 0  9991
2 60443  53.1600  58.2824 0001242  99.7344 260.3797 15.30188974 82671
STARLINK-32249          
1 60444U 24144V   26025.38054153 -.00000500  00000+0 -47817-5 0  9995
2 60444  53.1610  57.9183 0000901  85.3916 274.7188 15.30190085 82729
STARLINK-32228          
1 60445U 24144W   26025.31839553 -.00002387  00000+0 -68474-4 0  9990
2 60445  53.1597  58.2398 0001288  74.5435 285.5708 15.30201471 82710
